CountryID;CountryName;CountryISO2;CountryISO3;DisplayInPopup;SortOrder;DialCode
1;TestCountry1;AA;AA1;false;1;111
2;TestCountry2;AB;AB1;true;2;112
3;TestCountry3;AC;AC1;true;3;113
4;TestCountry4;AD;AD1;true;4;114
5;TestCountry5;AE;AE1;true;5;115
6;TestCountry6;AF;AF1;true;6;116
7;TestCountry7;AG;AG1;false;7;117
8;TestCountry8;AH;AH1;false;8;118
9;TestCountry9;AI;AI1;false;9;119
10;TestCountry10;AJ;AJ1;false;10;120
11;TestCountry11;AK;AK1;false;11;121
12;TestCountry12;AL;AL1;false;12;122
13;TestCountry13;AM;AM1;false;13;123
14;TestCountry14;AN;AN1;false;14;124
15;TestCountry15;AO;AO1;false;15;125
16;TestCountry16;AP;AP1;false;16;126
17;TestCountry17;AQ;AQ1;false;17;127
18;TestCountry18;AR;AR1;false;18;128
19;TestCountry19;AS;AS1;false;19;129
20;TestCountry20;AT;AT1;false;20;130
21;TestCountry21;AU;AU1;false;21;131
22;TestCountry22;AV;AV1;false;22;132
23;TestCountry23;AW;AW1;false;23;133
24;TestCountry24;AX;AX1;false;24;134
25;TestCountry25;AY;AY1;false;25;135
26;TestCountry26;AZ;AZ1;false;26;136
27;TestCountry27;BA;BA1;false;27;137
28;TestCountry28;BB;BB1;false;28;138
29;TestCountry29;BC;BC1;false;29;139
30;TestCountry30;BD;BD1;false;30;140
31;TestCountry31;BE;BE1;false;31;141
32;TestCountry32;BF;BF1;false;32;142
33;TestCountry33;BG;BG1;false;33;143
34;TestCountry34;BH;BH1;false;34;144
35;TestCountry35;BI;BI1;false;35;145
36;TestCountry36;BJ;BJ1;false;36;146
37;TestCountry37;BK;BK1;false;37;147
38;TestCountry38;BL;BL1;false;38;148
39;TestCountry39;BM;BM1;false;39;149
40;TestCountry40;BN;BN1;false;40;150
41;TestCountry41;BO;BO1;false;41;151
42;TestCountry42;BP;BP1;false;42;152
43;TestCountry43;BQ;BQ1;false;43;153
44;TestCountry44;BR;BR1;false;44;154
45;TestCountry45;BS;BS1;false;45;155
46;TestCountry46;BT;BT1;false;46;156
47;TestCountry47;BU;BU1;false;47;157
48;TestCountry48;BV;BV1;false;48;158
49;TestCountry49;BW;BW1;false;49;159
50;TestCountry50;BX;BX1;false;50;160
51;TestCountry51;BY;BY1;false;51;161
52;TestCountry52;BZ;BZ1;false;52;162
53;TestCountry53;CA;CA1;false;53;163
54;TestCountry54;CB;CB1;false;54;164
55;TestCountry55;CC;CC1;false;55;165
56;TestCountry56;CD;CD1;false;56;166
57;TestCountry57;CE;CE1;false;57;167
58;TestCountry58;CF;CF1;false;58;168
59;TestCountry59;CG;CG1;false;59;169
60;TestCountry60;CH;CH1;false;60;170
61;TestCountry61;CI;CI1;false;61;171
62;TestCountry62;CJ;CJ1;false;62;172
63;TestCountry63;CK;CK1;false;63;173
64;TestCountry64;CL;CL1;false;64;174
65;TestCountry65;CM;CM1;false;65;175
66;TestCountry66;CN;CN1;false;66;176
67;TestCountry67;CO;CO1;false;67;177
68;TestCountry68;CP;CP1;false;68;178
69;TestCountry69;CQ;CQ1;false;69;179
70;TestCountry70;CR;CR1;false;70;180
71;TestCountry71;CS;CS1;false;71;181
72;TestCountry72;CT;CT1;false;72;182
73;TestCountry73;CU;CU1;false;73;183
74;TestCountry74;CV;CV1;false;74;184
75;TestCountry75;CW;CW1;false;75;185
76;TestCountry76;CX;CX1;false;76;186
77;TestCountry77;CY;CY1;false;77;187
78;TestCountry78;CZ;CZ1;false;78;188
79;TestCountry79;DA;DA1;false;79;189
80;TestCountry80;DB;DB1;false;80;190
81;TestCountry81;DC;DC1;false;81;191
82;TestCountry82;DD;DD1;false;82;192
83;TestCountry83;DE;DE1;false;83;193
84;TestCountry84;DF;DF1;false;84;194
85;TestCountry85;DG;DG1;false;85;195
86;TestCountry86;DH;DH1;false;86;196
87;TestCountry87;DI;DI1;false;87;197
88;TestCountry88;DJ;DJ1;false;88;198
89;TestCountry89;DK;DK1;false;89;199
90;TestCountry90;DL;DL1;false;90;200
91;TestCountry91;DM;DM1;false;91;201
92;TestCountry92;DN;DN1;false;92;202
93;TestCountry93;DO;DO1;false;93;203
94;TestCountry94;DP;DP1;false;94;204
95;TestCountry95;DQ;DQ1;false;95;205
96;TestCountry96;DR;DR1;false;96;206
97;TestCountry97;DS;DS1;false;97;207
98;TestCountry98;DT;DT1;false;98;208
99;TestCountry99;DU;DU1;false;99;209
100;TestCountry100;DV;DV1;false;100;210
101;TestCountry101;DW;DW1;false;101;211
